ORBCOMM FM37            
1 33064U 08031E   25345.16526498  .00002390  00000+0  33559-3 0  9999
2 33064  48.4377 221.8200 0004830  57.0706  81.1646 14.80594284940268
ORBCOMM FM40            
1 33065U 08031F   25345.65357640  .00003520  00000+0  45371-3 0  9996
2 33065  48.4389 200.4272 0005778  77.6482 322.7870 14.83098047940492
VESSELSAT 1             
1 37840U 11058C   25345.62721585  .00000425  00000+0  87038-4 0  9992
2 37840  19.9613 100.1572 0013659 339.1134  20.8712 14.11398433731409
ORBCOMM FM109           
1 40086U 14040A   25345.49438213  .00001353  00000+0  32447-3 0  9994
2 40086  47.0034 258.7023 0001191  56.8466 303.2534 14.58541573606940
ORBCOMM FM107           
1 40087U 14040B   25345.17124027  .00001145  00000+0  27977-3 0  9996
2 40087  47.0050 261.1190 0001345 343.7187  16.3656 14.58615382606971
ORBCOMM FM106           
1 40088U 14040C   25345.59729992  .00002135  00000+0  38267-3 0  9999
2 40088  47.0600  66.8881 0016558 175.0733 185.0324 14.70024945609573
ORBCOMM FM111           
1 40089U 14040D   25345.47855774  .00006226  00000+0  69337-3 0  9992
2 40089  46.9999 253.2345 0029106 321.5214  38.3608 14.87706739616619
ORBCOMM FM104           
1 40090U 14040E   25345.56079457  .00001253  00000+0  31303-3 0  9997
2 40090  47.0058 295.0334 0017056 295.3802  64.5317 14.57005497606485
